[{"OBJECT_NAME":"STARLINK-5646","OBJECT_ID":"2023-015N","EPOCH":"2026-03-09T02:27:52.099776","MEAN_MOTION":15.02524276,"ECCENTRICITY":0.0001039,"INCLINATION":43.0039,"RA_OF_ASC_NODE":329.3585,"ARG_OF_PERICENTER":275.3748,"MEAN_ANOMALY":84.6976,"EPHEMERIS_TYPE":0,"CLASSIFICATION_TYPE":"U","NORAD_CAT_ID":55461,"ELEMENT_SET_NO":999,"REV_AT_EPOCH":17066,"BSTAR":-0.00028306209,"MEAN_MOTION_DOT":-4.024e-5,"MEAN_MOTION_DDOT":0},{"OBJECT_NAME":"CZ-4C DEB","OBJECT_ID":"2010-038F","EPOCH":"2026-03-09T16:58:31.008576","MEAN_MOTION":14.75157058,"ECCENTRICITY":0.01220425,"INCLINATION":97.8388,"RA_OF_ASC_NODE":141.0256,"ARG_OF_PERICENTER":182.6031,"MEAN_ANOMALY":177.4559,"EPHEMERIS_TYPE":0,"CLASSIFICATION_TYPE":"U","NORAD_CAT_ID":37570,"ELEMENT_SET_NO":999,"REV_AT_EPOCH":82359,"BSTAR":0.0011084777,"MEAN_MOTION_DOT":8.398e-5,"MEAN_MOTION_DDOT":0}]
